DELTA 2 R/B(1)          
1 20453U 90008B   26058.87412212  .00075334  00000+0  92687-3 0  9995
2 20453  35.6026 239.2014 0087529 167.5864 192.7052 15.54459579924608
COSMOS 2058             
1 20465U 90010A   26058.98128765  .00004355  00000+0  25732-3 0  9992
2 20465  82.4664  56.9926 0010062  15.7156 344.4385 15.11218717940772
SL-14 R/B               
1 20466U 90010B   26059.10945848  .00000420  00000+0  47962-4 0  9996
2 20466  82.4994 276.3899 0019169 335.6765  24.3543 14.83559342927060
SL-14 R/B               
1 20511U 90018B   26058.98304874  .00000543  00000+0  65148-4 0  9990
2 20511  82.5188 232.1634 0017504 121.4562 238.8366 14.82132134921144
HST                     
1 20580U 90037B   26059.15472324  .00008076  00000+0  26812-3 0  9996
2 20580  28.4697 105.0364 0001474  27.6897 332.3776 15.29307341771851
SL-16 R/B               
1 20625U 90046B   26059.15380707 -.00000106  00000+0 -30282-4 0  9994
2 20625  71.0010 317.9414 0015999 312.5346  47.4425 14.15015284847042
COSMOS 2084             
1 20663U 90055A   26059.15805801  .00003157  00000+0  23115-3 0  9996
2 20663  62.7914   8.0837 0018512 187.7332 172.3485 15.05579951934881
SL-6 R/B(2)             
1 20666U 90055D   26059.06120399  .00002071  00000+0  16479-3 0  9990
2 20666  62.7825 286.5941 0023258 344.5936  15.4452 15.03541408936742
SL-8 R/B                
1 20775U 90078B   26058.96535471  .00016517  00000+0  48478-3 0  9999
2 20775  82.8996 260.0555 0364539  46.6353 316.4624 14.88690683807852
SL-8 R/B                
1 21088U 91006B   26059.05880520  .00000042  00000+0  26665-4 0  9999
2 21088  82.9462 177.2051 0023555  64.2561 108.4324 13.77493052762748
OKEAN-3                 
1 21397U 91039A   26059.03689604  .00003486  00000+0  24513-3 0  9990
2 21397  82.5200 346.1924 0014568  11.6445 348.5115 15.04724312863581
COSMOS 2151             
1 21422U 91042A   26059.14456742  .00001602  00000+0  12626-3 0  9990
2 21422  82.4934  92.8859 0014146  92.1349 268.1495 15.00061114861760
