CCSDS_OMM_VERS = 2.0
CREATION_DATE  = 
ORIGINATOR     = 

OBJECT_NAME    = DELTA 2 R/B(1)
OBJECT_ID      = 1990-008B
CENTER_NAME    = EARTH
REF_FRAME      = TEME
TIME_SYSTEM    = UTC
MEAN_ELEMENT_THEORY = SGP/SGP4

EPOCH          = 2026-02-27T20:58:44.151168
MEAN_MOTION    = 15.54459579
ECCENTRICITY   = .0087529
INCLINATION    = 35.6026
RA_OF_ASC_NODE = 239.2014
ARG_OF_PERICENTER = 167.5864
MEAN_ANOMALY   = 192.7052

EPHEMERIS_TYPE = 0
CLASSIFICATION_TYPE = U
NORAD_CAT_ID   = 20453
ELEMENT_SET_NO = 999
REV_AT_EPOCH   = 92460
BSTAR          = .92687E-3
MEAN_MOTION_DOT = .75334E-3
MEAN_MOTION_DDOT = 0

CCSDS_OMM_VERS = 2.0
CREATION_DATE  = 
ORIGINATOR     = 

OBJECT_NAME    = COSMOS 2058
OBJECT_ID      = 1990-010A
CENTER_NAME    = EARTH
REF_FRAME      = TEME
TIME_SYSTEM    = UTC
MEAN_ELEMENT_THEORY = SGP/SGP4

EPOCH          = 2026-02-27T23:33:03.252960
MEAN_MOTION    = 15.11218717
ECCENTRICITY   = .0010062
INCLINATION    = 82.4664
RA_OF_ASC_NODE = 56.9926
ARG_OF_PERICENTER = 15.7156
MEAN_ANOMALY   = 344.4385

EPHEMERIS_TYPE = 0
CLASSIFICATION_TYPE = U
NORAD_CAT_ID   = 20465
ELEMENT_SET_NO = 999
REV_AT_EPOCH   = 94077
BSTAR          = .25732E-3
MEAN_MOTION_DOT = .4355E-4
MEAN_MOTION_DDOT = 0

CCSDS_OMM_VERS = 2.0
CREATION_DATE  = 
ORIGINATOR     = 

OBJECT_NAME    = SL-14 R/B
OBJECT_ID      = 1990-010B
CENTER_NAME    = EARTH
REF_FRAME      = TEME
TIME_SYSTEM    = UTC
MEAN_ELEMENT_THEORY = SGP/SGP4

EPOCH          = 2026-02-28T02:37:37.212672
MEAN_MOTION    = 14.83559342
ECCENTRICITY   = .0019169
INCLINATION    = 82.4994
RA_OF_ASC_NODE = 276.3899
ARG_OF_PERICENTER = 335.6765
MEAN_ANOMALY   = 24.3543

EPHEMERIS_TYPE = 0
CLASSIFICATION_TYPE = U
NORAD_CAT_ID   = 20466
ELEMENT_SET_NO = 999
REV_AT_EPOCH   = 92706
BSTAR          = .47962E-4
MEAN_MOTION_DOT = .42E-5
MEAN_MOTION_DDOT = 0

CCSDS_OMM_VERS = 2.0
CREATION_DATE  = 
ORIGINATOR     = 

OBJECT_NAME    = SL-14 R/B
OBJECT_ID      = 1990-018B
CENTER_NAME    = EARTH
REF_FRAME      = TEME
TIME_SYSTEM    = UTC
MEAN_ELEMENT_THEORY = SGP/SGP4

EPOCH          = 2026-02-27T23:35:35.411136
MEAN_MOTION    = 14.82132134
ECCENTRICITY   = .0017504
INCLINATION    = 82.5188
RA_OF_ASC_NODE = 232.1634
ARG_OF_PERICENTER = 121.4562
MEAN_ANOMALY   = 238.8366

EPHEMERIS_TYPE = 0
CLASSIFICATION_TYPE = U
NORAD_CAT_ID   = 20511
ELEMENT_SET_NO = 999
REV_AT_EPOCH   = 92114
BSTAR          = .65148E-4
MEAN_MOTION_DOT = .543E-5
MEAN_MOTION_DDOT = 0

CCSDS_OMM_VERS = 2.0
CREATION_DATE  = 
ORIGINATOR     = 

OBJECT_NAME    = HST
OBJECT_ID      = 1990-037B
CENTER_NAME    = EARTH
REF_FRAME      = TEME
TIME_SYSTEM    = UTC
MEAN_ELEMENT_THEORY = SGP/SGP4

EPOCH          = 2026-02-28T03:42:48.087936
MEAN_MOTION    = 15.29307341
ECCENTRICITY   = .0001474
INCLINATION    = 28.4697
RA_OF_ASC_NODE = 105.0364
ARG_OF_PERICENTER = 27.6897
MEAN_ANOMALY   = 332.3776

EPHEMERIS_TYPE = 0
CLASSIFICATION_TYPE = U
NORAD_CAT_ID   = 20580
ELEMENT_SET_NO = 999
REV_AT_EPOCH   = 77185
BSTAR          = .26812E-3
MEAN_MOTION_DOT = .8076E-4
MEAN_MOTION_DDOT = 0

CCSDS_OMM_VERS = 2.0
CREATION_DATE  = 
ORIGINATOR     = 

OBJECT_NAME    = SL-16 R/B
OBJECT_ID      = 1990-046B
CENTER_NAME    = EARTH
REF_FRAME      = TEME
TIME_SYSTEM    = UTC
MEAN_ELEMENT_THEORY = SGP/SGP4

EPOCH          = 2026-02-28T03:41:28.930848
MEAN_MOTION    = 14.15015284
ECCENTRICITY   = .0015999
INCLINATION    = 71.0010
RA_OF_ASC_NODE = 317.9414
ARG_OF_PERICENTER = 312.5346
MEAN_ANOMALY   = 47.4425

EPHEMERIS_TYPE = 0
CLASSIFICATION_TYPE = U
NORAD_CAT_ID   = 20625
ELEMENT_SET_NO = 999
REV_AT_EPOCH   = 84704
BSTAR          = -.30282E-4
MEAN_MOTION_DOT = -.106E-5
MEAN_MOTION_DDOT = 0

CCSDS_OMM_VERS = 2.0
CREATION_DATE  = 
ORIGINATOR     = 

OBJECT_NAME    = COSMOS 2084
OBJECT_ID      = 1990-055A
CENTER_NAME    = EARTH
REF_FRAME      = TEME
TIME_SYSTEM    = UTC
MEAN_ELEMENT_THEORY = SGP/SGP4

EPOCH          = 2026-02-28T03:47:36.212064
MEAN_MOTION    = 15.05579951
ECCENTRICITY   = .0018512
INCLINATION    = 62.7914
RA_OF_ASC_NODE = 8.0837
ARG_OF_PERICENTER = 187.7332
MEAN_ANOMALY   = 172.3485

EPHEMERIS_TYPE = 0
CLASSIFICATION_TYPE = U
NORAD_CAT_ID   = 20663
ELEMENT_SET_NO = 999
REV_AT_EPOCH   = 93488
BSTAR          = .23115E-3
MEAN_MOTION_DOT = .3157E-4
MEAN_MOTION_DDOT = 0

CCSDS_OMM_VERS = 2.0
CREATION_DATE  = 
ORIGINATOR     = 

OBJECT_NAME    = SL-6 R/B(2)
OBJECT_ID      = 1990-055D
CENTER_NAME    = EARTH
REF_FRAME      = TEME
TIME_SYSTEM    = UTC
MEAN_ELEMENT_THEORY = SGP/SGP4

EPOCH          = 2026-02-28T01:28:08.024736
MEAN_MOTION    = 15.03541408
ECCENTRICITY   = .0023258
INCLINATION    = 62.7825
RA_OF_ASC_NODE = 286.5941
ARG_OF_PERICENTER = 344.5936
MEAN_ANOMALY   = 15.4452

EPHEMERIS_TYPE = 0
CLASSIFICATION_TYPE = U
NORAD_CAT_ID   = 20666
ELEMENT_SET_NO = 999
REV_AT_EPOCH   = 93674
BSTAR          = .16479E-3
MEAN_MOTION_DOT = .2071E-4
MEAN_MOTION_DDOT = 0

CCSDS_OMM_VERS = 2.0
CREATION_DATE  = 
ORIGINATOR     = 

OBJECT_NAME    = SL-8 R/B
OBJECT_ID      = 1990-078B
CENTER_NAME    = EARTH
REF_FRAME      = TEME
TIME_SYSTEM    = UTC
MEAN_ELEMENT_THEORY = SGP/SGP4

EPOCH          = 2026-02-27T23:10:06.646944
MEAN_MOTION    = 14.88690683
ECCENTRICITY   = .0364539
INCLINATION    = 82.8996
RA_OF_ASC_NODE = 260.0555
ARG_OF_PERICENTER = 46.6353
MEAN_ANOMALY   = 316.4624

EPHEMERIS_TYPE = 0
CLASSIFICATION_TYPE = U
NORAD_CAT_ID   = 20775
ELEMENT_SET_NO = 999
REV_AT_EPOCH   = 80785
BSTAR          = .48478E-3
MEAN_MOTION_DOT = .16517E-3
MEAN_MOTION_DDOT = 0

CCSDS_OMM_VERS = 2.0
CREATION_DATE  = 
ORIGINATOR     = 

OBJECT_NAME    = SL-8 R/B
OBJECT_ID      = 1991-006B
CENTER_NAME    = EARTH
REF_FRAME      = TEME
TIME_SYSTEM    = UTC
MEAN_ELEMENT_THEORY = SGP/SGP4

EPOCH          = 2026-02-28T01:24:40.769280
MEAN_MOTION    = 13.77493052
ECCENTRICITY   = .0023555
INCLINATION    = 82.9462
RA_OF_ASC_NODE = 177.2051
ARG_OF_PERICENTER = 64.2561
MEAN_ANOMALY   = 108.4324

EPHEMERIS_TYPE = 0
CLASSIFICATION_TYPE = U
NORAD_CAT_ID   = 21088
ELEMENT_SET_NO = 999
REV_AT_EPOCH   = 76274
BSTAR          = .26665E-4
MEAN_MOTION_DOT = .42E-6
MEAN_MOTION_DDOT = 0

CCSDS_OMM_VERS = 2.0
CREATION_DATE  = 
ORIGINATOR     = 

OBJECT_NAME    = OKEAN-3
OBJECT_ID      = 1991-039A
CENTER_NAME    = EARTH
REF_FRAME      = TEME
TIME_SYSTEM    = UTC
MEAN_ELEMENT_THEORY = SGP/SGP4

EPOCH          = 2026-02-28T00:53:07.817856
MEAN_MOTION    = 15.04724312
ECCENTRICITY   = .0014568
INCLINATION    = 82.5200
RA_OF_ASC_NODE = 346.1924
ARG_OF_PERICENTER = 11.6445
MEAN_ANOMALY   = 348.5115

EPHEMERIS_TYPE = 0
CLASSIFICATION_TYPE = U
NORAD_CAT_ID   = 21397
ELEMENT_SET_NO = 999
REV_AT_EPOCH   = 86358
BSTAR          = .24513E-3
MEAN_MOTION_DOT = .3486E-4
MEAN_MOTION_DDOT = 0

CCSDS_OMM_VERS = 2.0
CREATION_DATE  = 
ORIGINATOR     = 

OBJECT_NAME    = COSMOS 2151
OBJECT_ID      = 1991-042A
CENTER_NAME    = EARTH
REF_FRAME      = TEME
TIME_SYSTEM    = UTC
MEAN_ELEMENT_THEORY = SGP/SGP4

EPOCH          = 2026-02-28T03:28:10.625088
MEAN_MOTION    = 15.00061114
ECCENTRICITY   = .0014146
INCLINATION    = 82.4934
RA_OF_ASC_NODE = 92.8859
ARG_OF_PERICENTER = 92.1349
MEAN_ANOMALY   = 268.1495

EPHEMERIS_TYPE = 0
CLASSIFICATION_TYPE = U
NORAD_CAT_ID   = 21422
ELEMENT_SET_NO = 999
REV_AT_EPOCH   = 86176
BSTAR          = .12626E-3
MEAN_MOTION_DOT = .1602E-4
MEAN_MOTION_DDOT = 0

